[Satellite]
VERSION=1.1
NAME=GORIZONT 3 [-]
NICKNAME=GORIZONT 3 [-]
TLE1=1 11648U 79105A   15053.06174348  .00000102  00000-0  00000+0 0  9991
TLE2=2 11648  13.9495 334.4033 0015172 149.2561  93.4408  1.00240686 81012
